{"type": "FeatureCollection", "features": [ {"type": "Feature", "properties": {"norad_id": 44476, "name": "INTELSAT 39 (IS-39)", "group": "intelsat", "lat": -0.03963205030402018, "lon": -152.64987499394906, "alt_km": 35784.236050838306, "timestamp": "2025-12-03T04:52:29.309427+00:00", "meta": {"OBJECT_NAME": "INTELSAT 39 (IS-39)", "OBJECT_ID": "2019-049B", "EPOCH": "2025-12-02T20:14:09.203712", "MEAN_MOTION": 1.00270042, "ECCENTRICITY": 9.19e-05, "INCLINATION": 0.0161, "RA_OF_ASC_NODE": 309.7278, "ARG_OF_PERICENTER": 204.5848, "MEAN_ANOMALY": 283.1192, "EPHEMERIS_TYPE": 0, "CLASSIFICATION_TYPE": "U", "NORAD_CAT_ID": 44476, "ELEMENT_SET_NO": 999, "REV_AT_EPOCH": 2315, "BSTAR": 0, "MEAN_MOTION_DOT": 5.3e-07, "MEAN_MOTION_DDOT": 0}, "tle": {"line1": "1 44476U 19049B   25336.84316208  .00000053  00000+0  00000+0 0  9995", "line2": "2 44476   0.0161 309.7278 0000919 204.5848 283.1192  1.00270042 23154"}}, "geometry": {"type": "Point", "coordinates": [-152.64987499394906, -0.03963205030402018]}}, {"type": "Feature", "properties": {"norad_id": 46114, "name": "GALAXY 30 (G-30)", "group": "intelsat", "lat": 0.03429422285973688, "lon": 20.420680964446007, "alt_km": 35792.28630827215, "timestamp": "2025-12-03T04:52:29.309439+00:00", "meta": {"OBJECT_NAME": "GALAXY 30 (G-30)", "OBJECT_ID": "2020-056C", "EPOCH": "2025-12-02T15:20:38.910336", "MEAN_MOTION": 1.00272281, "ECCENTRICITY": 0.0002383, "INCLINATION": 0.0122, "RA_OF_ASC_NODE": 297.5405, "ARG_OF_PERICENTER": 313.6846, "MEAN_ANOMALY": 285.6838, "EPHEMERIS_TYPE": 0, "CLASSIFICATION_TYPE": "U", "NORAD_CAT_ID": 46114, "ELEMENT_SET_NO": 999, "REV_AT_EPOCH": 1932, "BSTAR": 0, "MEAN_MOTION_DOT": 5.7e-07, "MEAN_MOTION_DDOT": 0}, "tle": {"line1": "1 46114U 20056C   25336.63933924  .00000057  00000+0  00000+0 0  9997", "line2": "2 46114   0.0122 297.5405 0002383 313.6846 285.6838  1.00272281 19320"}}, "geometry": {"type": "Point", "coordinates": [20.420680964446007, 0.03429422285973688]}}, {"type": "Feature", "properties": {"norad_id": 54026, "name": "GALAXY 33 (G-33)", "group": "intelsat", "lat": 0.0268221714315294, "lon": 12.420627077202887, "alt_km": 35790.58408923293, "timestamp": "2025-12-03T04:52:29.309450+00:00", "meta": {"OBJECT_NAME": "GALAXY 33 (G-33)", "OBJECT_ID": "2022-128A", "EPOCH": "2025-12-02T16:34:35.368032", "MEAN_MOTION": 1.00272458, "ECCENTRICITY": 0.0001946, "INCLINATION": 0.0146, "RA_OF_ASC_NODE": 335.983, "ARG_OF_PERICENTER": 271.3406, "MEAN_ANOMALY": 300.1238, "EPHEMERIS_TYPE": 0, "CLASSIFICATION_TYPE": "U", "NORAD_CAT_ID": 54026, "ELEMENT_SET_NO": 999, "REV_AT_EPOCH": 1177, "BSTAR": 0, "MEAN_MOTION_DOT": 9.9e-07, "MEAN_MOTION_DDOT": 0}, "tle": {"line1": "1 54026U 22128A   25336.69068713  .00000099  00000+0  00000+0 0  9997", "line2": "2 54026   0.0146 335.9830 0001946 271.3406 300.1238  1.00272458 11776"}}, "geometry": {"type": "Point", "coordinates": [12.420627077202887, 0.0268221714315294]}}, {"type": "Feature", "properties": {"norad_id": 54027, "name": "GALAXY 34 (G-34)", "group": "intelsat", "lat": 0.032762465372947226, "lon": 16.411430519259827, "alt_km": 35789.34643136217, "timestamp": "2025-12-03T04:52:29.309462+00:00", "meta": {"OBJECT_NAME": "GALAXY 34 (G-34)", "OBJECT_ID": "2022-128B", "EPOCH": "2025-12-02T16:35:42.760032", "MEAN_MOTION": 1.00273185, "ECCENTRICITY": 0.0001407, "INCLINATION": 0.0155, "RA_OF_ASC_NODE": 325.4704, "ARG_OF_PERICENTER": 282.5721, "MEAN_ANOMALY": 303.6816, "EPHEMERIS_TYPE": 0, "CLASSIFICATION_TYPE": "U", "NORAD_CAT_ID": 54027, "ELEMENT_SET_NO": 999, "REV_AT_EPOCH": 1194, "BSTAR": 0, "MEAN_MOTION_DOT": 7.9e-07, "MEAN_MOTION_DDOT": 0}, "tle": {"line1": "1 54027U 22128B   25336.69146713  .00000079  00000+0  00000+0 0  9993", "line2": "2 54027   0.0155 325.4704 0001407 282.5721 303.6816  1.00273185 11944"}}, "geometry": {"type": "Point", "coordinates": [16.411430519259827, 0.032762465372947226]}}, {"type": "Feature", "properties": {"norad_id": 54243, "name": "GALAXY 31 (G-31)", "group": "intelsat", "lat": 0.028607726420628185, "lon": 24.391748677257983, "alt_km": 35790.197770323066, "timestamp": "2025-12-03T04:52:29.309474+00:00", "meta": {"OBJECT_NAME": "GALAXY 31 (G-31)", "OBJECT_ID": "2022-153A", "EPOCH": "2025-12-02T16:38:05.034048", "MEAN_MOTION": 1.00271683, "ECCENTRICITY": 0.0002072, "INCLINATION": 0.0122, "RA_OF_ASC_NODE": 340.0695, "ARG_OF_PERICENTER": 286.4863, "MEAN_ANOMALY": 293.7375, "EPHEMERIS_TYPE": 0, "CLASSIFICATION_TYPE": "U", "NORAD_CAT_ID": 54243, "ELEMENT_SET_NO": 999, "REV_AT_EPOCH": 516, "BSTAR": 0, "MEAN_MOTION_DOT": 0, "MEAN_MOTION_DDOT": 0}, "tle": {"line1": "1 54243U 22153A   25336.69311382  .00000000  00000+0  00000+0 0  9991", "line2": "2 54243   0.0122 340.0695 0002072 286.4863 293.7375  1.00271683  5166"}}, "geometry": {"type": "Point", "coordinates": [24.391748677257983, 0.028607726420628185]}}, {"type": "Feature", "properties": {"norad_id": 54244, "name": "GALAXY 32 (G-32)", "group": "intelsat", "lat": 0.034090131556799276, "lon": 54.421984583442025, "alt_km": 35790.074511509694, "timestamp": "2025-12-03T04:52:29.309485+00:00", "meta": {"OBJECT_NAME": "GALAXY 32 (G-32)", "OBJECT_ID": "2022-153B", "EPOCH": "2025-12-02T11:10:37.032960", "MEAN_MOTION": 1.0027048, "ECCENTRICITY": 0.00024642, "INCLINATION": 0.01, "RA_OF_ASC_NODE": 320.0818, "ARG_OF_PERICENTER": 344.284, "MEAN_ANOMALY": 203.865, "EPHEMERIS_TYPE": 0, "CLASSIFICATION_TYPE": "U", "NORAD_CAT_ID": 54244, "ELEMENT_SET_NO": 999, "REV_AT_EPOCH": 1117, "BSTAR": 0, "MEAN_MOTION_DOT": -1.54e-06, "MEAN_MOTION_DDOT": 0}, "tle": {"line1": "1 54244U 22153B   25336.46570640 -.00000154  00000+0  00000+0 0  9992", "line2": "2 54244   0.0100 320.0818 0002464 344.2840 203.8650  1.00270480 11171"}}, "geometry": {"type": "Point", "coordinates": [54.421984583442025, 0.034090131556799276]}}, {"type": "Feature", "properties": {"norad_id": 54741, "name": "GALAXY 35 (G-35)", "group": "intelsat", "lat": 0.04083367681172524, "lon": 52.28578021705636, "alt_km": 35797.31748416911, "timestamp": "2025-12-03T04:52:29.309497+00:00", "meta": {"OBJECT_NAME": "GALAXY 35 (G-35)", "OBJECT_ID": "2022-170A", "EPOCH": "2025-12-02T13:20:35.064960", "MEAN_MOTION": 1.00269337, "ECCENTRICITY": 0.00028145, "INCLINATION": 0.0165, "RA_OF_ASC_NODE": 322.8151, "ARG_OF_PERICENTER": 297.5773, "MEAN_ANOMALY": 278.2964, "EPHEMERIS_TYPE": 0, "CLASSIFICATION_TYPE": "U", "NORAD_CAT_ID": 54741, "ELEMENT_SET_NO": 999, "REV_AT_EPOCH": 1092, "BSTAR": 0, "MEAN_MOTION_DOT": 0, "MEAN_MOTION_DDOT": 0}, "tle": {"line1": "1 54741U 22170A   25336.55596140  .00000000  00000+0  00000+0 0  9995", "line2": "2 54741   0.0165 322.8151 0002814 297.5773 278.2964  1.00269337 10923"}}, "geometry": {"type": "Point", "coordinates": [52.28578021705636, 0.04083367681172524]}}, {"type": "Feature", "properties": {"norad_id": 54742, "name": "GALAXY 36 (G-36)", "group": "intelsat", "lat": 0.024197536243846934, "lon": 56.39712069059653, "alt_km": 35788.80921577464, "timestamp": "2025-12-03T04:52:29.309508+00:00", "meta": {"OBJECT_NAME": "GALAXY 36 (G-36)", "OBJECT_ID": "2022-170B", "EPOCH": "2025-12-02T15:04:22.992960", "MEAN_MOTION": 1.00270549, "ECCENTRICITY": 5.63e-05, "INCLINATION": 0.0186, "RA_OF_ASC_NODE": 261.3876, "ARG_OF_PERICENTER": 345.0458, "MEAN_ANOMALY": 322.3984, "EPHEMERIS_TYPE": 0, "CLASSIFICATION_TYPE": "U", "NORAD_CAT_ID": 54742, "ELEMENT_SET_NO": 999, "REV_AT_EPOCH": 1080, "BSTAR": 0, "MEAN_MOTION_DOT": -1.65e-06, "MEAN_MOTION_DDOT": 0}, "tle": {"line1": "1 54742U 22170B   25336.62804390 -.00000165  00000+0  00000+0 0  9996", "line2": "2 54742   0.0186 261.3876 0000563 345.0458 322.3984  1.00270549 10803"}}, "geometry": {"type": "Point", "coordinates": [56.39712069059653, 0.024197536243846934]}}, {"type": "Feature", "properties": {"norad_id": 57493, "name": "GALAXY 37 (G-37)", "group": "intelsat", "lat": 0.03889034992266253, "lon": 18.430483439213194, "alt_km": 35791.001473549775, "timestamp": "2025-12-03T04:52:29.309520+00:00", "meta": {"OBJECT_NAME": "GALAXY 37 (G-37)", "OBJECT_ID": "2023-112A", "EPOCH": "2025-12-02T16:36:20.199744", "MEAN_MOTION": 1.0027293, "ECCENTRICITY": 0.0002441, "INCLINATION": 0.0171, "RA_OF_ASC_NODE": 297.5198, "ARG_OF_PERICENTER": 320.2783, "MEAN_ANOMALY": 296.0905, "EPHEMERIS_TYPE": 0, "CLASSIFICATION_TYPE": "U", "NORAD_CAT_ID": 57493, "ELEMENT_SET_NO": 999, "REV_AT_EPOCH": 857, "BSTAR": 0, "MEAN_MOTION_DOT": 6.8e-07, "MEAN_MOTION_DDOT": 0}, "tle": {"line1": "1 57493U 23112A   25336.69190046  .00000068  00000+0  00000+0 0  9993", "line2": "2 57493   0.0171 297.5198 0002441 320.2783 296.0905  1.00272930  8571"}}, "geometry": {"type": "Point", "coordinates": [18.430483439213194, 0.03889034992266253]}}]}